{
  "type": "FeatureCollection",
  "features": [
    {
      "type": "Feature",
      "geometry": {
        "type": "Point",
        "coordinates": [
          -84.04899295728595,
          9.935610136323218
        ]
      },
      "properties": {
        "stop_id": "bUCR_0_01",
        "stop_name": "Educación",
        "stop_code": "",
        "stop_desc": "Frente al jardín de la Facultad de Educación (FE)",
        "stop_heading": "northwest",
        "zone_id": "bUCR_0",
        "stop_url": "https://bus.ucr.ac.cr/paradas/bUCR_0_01",
        "location_type": "0",
        "parent_station": "",
        "wheelchair_boarding": "1",
        "shelter": "yes",
        "bench": "yes",
        "lit": "yes",
        "bay": "yes",
        "device_charging_station": "yes"
      }
    },
    {
      "type": "Feature",
      "geometry": {
        "type": "Point",
        "coordinates": [
          -84.05217559901489,
          9.935501598287884
        ]
      },
      "properties": {
        "stop_id": "bUCR_0_02",
        "stop_name": "Artes Plásticas",
        "stop_code": "",
        "stop_desc": "Nuevo edificio de la Escuela de Artes Plásticas (EAP)",
        "stop_heading": "west",
        "zone_id": "bUCR_0",
        "stop_url": "https://bus.ucr.ac.cr/paradas/bUCR_0_02",
        "location_type": "0",
        "parent_station": "",
        "wheelchair_boarding": "1",
        "shelter": "yes",
        "bench": "yes",
        "lit": "yes",
        "bay": "yes",
        "device_charging_station": "yes"
      }
    },
    {
      "type": "Feature",
      "geometry": {
        "type": "Point",
        "coordinates": [
          -84.0517499001992,
          9.93860832346218
        ]
      },
      "properties": {
        "stop_id": "bUCR_0_03",
        "stop_name": "Ciencias de la Salud",
        "stop_code": "",
        "stop_desc": "Frente al antiguo edificio de la Facultad de Odontología (FOd), diagonal al parqueo de la Biblioteca de Ciencias de la Salud",
        "stop_heading": "northeast",
        "zone_id": "bUCR_0",
        "stop_url": "https://bus.ucr.ac.cr/paradas/bUCR_0_03",
        "location_type": "0",
        "parent_station": "",
        "wheelchair_boarding": "1",
        "shelter": "yes",
        "bench": "yes",
        "lit": "yes",
        "bay": "yes",
        "device_charging_station": "no"
      }
    },
    {
      "type": "Feature",
      "geometry": {
        "type": "Point",
        "coordinates": [
          -84.04876049840074,
          9.93832361909286
        ]
      },
      "properties": {
        "stop_id": "bUCR_0_04",
        "stop_name": "Microbiología",
        "stop_code": "",
        "stop_desc": "Esquina noreste del parqueo de las Escuelas de Artes Musicales (EAM), Química (EQ) y Biología (EB) y la Facultad de Microbiología (FMic)",
        "stop_heading": "southeast",
        "zone_id": "bUCR_0",
        "stop_url": "https://bus.ucr.ac.cr/paradas/bUCR_0_04",
        "location_type": "0",
        "parent_station": "",
        "wheelchair_boarding": "1",
        "shelter": "yes",
        "bench": "yes",
        "lit": "yes",
        "bay": "yes",
        "device_charging_station": "yes"
      }
    },
    {
      "type": "Feature",
      "geometry": {
        "type": "Point",
        "coordinates": [
          -84.04537504744147,
          9.935903915437937
        ]
      },
      "properties": {
        "stop_id": "bUCR_0_05",
        "stop_name": "LANAMME",
        "stop_code": "",
        "stop_desc": "Junto al parqueo del Centro de Transferencia Tecnológica (CTT), diagonal al Laboratorio Nacional de Materiales y Modelos Estructurales (LANAMME)",
        "stop_heading": "north",
        "zone_id": "bUCR_0",
        "stop_url": "https://bus.ucr.ac.cr/paradas/bUCR_0_05",
        "location_type": "0",
        "parent_station": "bUCR_LA",
        "wheelchair_boarding": "2",
        "shelter": "no",
        "bench": "no",
        "lit": "no",
        "bay": "no",
        "device_charging_station": "no"
      }
    },
    {
      "type": "Feature",
      "geometry": {
        "type": "Point",
        "coordinates": [
          -84.04467644300775,
          9.937467311441507
        ]
      },
      "properties": {
        "stop_id": "bUCR_0_06",
        "stop_name": "Ingeniería",
        "stop_code": "A",
        "stop_desc": "Costado norte del nuevo edificio de la Facultad de Ingeniería (FI)",
        "stop_heading": "northeast",
        "zone_id": "bUCR_0",
        "stop_url": "https://bus.ucr.ac.cr/paradas/bUCR_0_06",
        "location_type": "0",
        "parent_station": "bUCR_FI",
        "wheelchair_boarding": "2",
        "shelter": "yes",
        "bench": "yes",
        "lit": "yes",
        "bay": "yes",
        "device_charging_station": "no"
      }
    },
    {
      "type": "Feature",
      "geometry": {
        "type": "Point",
        "coordinates": [
          -84.04237892478906,
          9.938029607676915
        ]
      },
      "properties": {
        "stop_id": "bUCR_0_07",
        "stop_name": "Ciencias Sociales",
        "stop_code": "",
        "stop_desc": "Entre la Facultad de Ciencias Sociales (FCS) y el edificio de parqueos",
        "stop_heading": "east",
        "zone_id": "bUCR_0",
        "stop_url": "https://bus.ucr.ac.cr/paradas/bUCR_0_07",
        "location_type": "0",
        "parent_station": "bUCR_CS",
        "wheelchair_boarding": "2",
        "shelter": "no",
        "bench": "no",
        "lit": "no",
        "bay": "no",
        "device_charging_station": "no"
      }
    },
    {
      "type": "Feature",
      "geometry": {
        "type": "Point",
        "coordinates": [
          -84.04307776266035,
          9.939451647823137
        ]
      },
      "properties": {
        "stop_id": "bUCR_0_08",
        "stop_name": "INIE",
        "stop_code": "",
        "stop_desc": "Costado sur del edificio del Instituto de Investigación en Educación (INIE)",
        "stop_heading": "west",
        "zone_id": "bUCR_0",
        "stop_url": "https://bus.ucr.ac.cr/paradas/bUCR_0_08",
        "location_type": "0",
        "parent_station": "",
        "wheelchair_boarding": "2",
        "shelter": "no",
        "bench": "no",
        "lit": "no",
        "bay": "no",
        "device_charging_station": "no"
      }
    },
    {
      "type": "Feature",
      "geometry": {
        "type": "Point",
        "coordinates": [
          -84.04450675690296,
          9.940155168862551
        ]
      },
      "properties": {
        "stop_id": "bUCR_0_09",
        "stop_name": "CICICA",
        "stop_code": "",
        "stop_desc": "Costado sur del edificio del Centro de Investigación en Cirugía y Cáncer (CICICA)",
        "stop_heading": "west",
        "zone_id": "bUCR_0",
        "stop_url": "https://bus.ucr.ac.cr/paradas/bUCR_0_09",
        "location_type": "0",
        "parent_station": "",
        "wheelchair_boarding": "2",
        "shelter": "no",
        "bench": "no",
        "lit": "no",
        "bay": "no",
        "device_charging_station": "no"
      }
    },
    {
      "type": "Feature",
      "geometry": {
        "type": "Point",
        "coordinates": [
          -84.04468346245407,
          9.943761220391433
        ]
      },
      "properties": {
        "stop_id": "bUCR_0_10",
        "stop_name": "OBS",
        "stop_code": "",
        "stop_desc": "Entre el nuevo edificio de la Oficina de Bienestar y Salud (OBS) y el Estadio Ecológico",
        "stop_heading": "north",
        "zone_id": "bUCR_0",
        "stop_url": "https://bus.ucr.ac.cr/paradas/bUCR_0_10",
        "location_type": "0",
        "parent_station": "",
        "wheelchair_boarding": "2",
        "shelter": "no",
        "bench": "no",
        "lit": "no",
        "bay": "no",
        "device_charging_station": "no"
      }
    },
    {
      "type": "Feature",
      "geometry": {
        "type": "Point",
        "coordinates": [
          -84.0451915613564,
          9.946441050827925
        ]
      },
      "properties": {
        "stop_id": "bUCR_0_11",
        "stop_name": "Odontología",
        "stop_code": "",
        "stop_desc": "En el nuevo edificio de la Facultad de Odontología (FOd) en la Finca 3",
        "stop_heading": "north",
        "zone_id": "bUCR_0",
        "stop_url": "https://bus.ucr.ac.cr/paradas/bUCR_0_11",
        "location_type": "0",
        "parent_station": "",
        "wheelchair_boarding": "2",
        "shelter": "no",
        "bench": "no",
        "lit": "no",
        "bay": "no",
        "device_charging_station": "no"
      }
    },
    {
      "type": "Feature",
      "geometry": {
        "type": "Point",
        "coordinates": [
          -84.04535458313804,
          9.946529500847424
        ]
      },
      "properties": {
        "stop_id": "bUCR_1_01",
        "stop_name": "Odontología",
        "stop_code": "",
        "stop_desc": "En el nuevo edificio de la Facultad de Odontología (FOd) en la Finca 3",
        "stop_heading": "south",
        "zone_id": "bUCR_1",
        "stop_url": "https://bus.ucr.ac.cr/paradas/bUCR_1_01",
        "location_type": "0",
        "parent_station": "",
        "wheelchair_boarding": "2",
        "shelter": "no",
        "bench": "no",
        "lit": "no",
        "bay": "no",
        "device_charging_station": "no"
      }
    },
    {
      "type": "Feature",
      "geometry": {
        "type": "Point",
        "coordinates": [
          -84.04495180739714,
          9.943381444081362
        ]
      },
      "properties": {
        "stop_id": "bUCR_1_02",
        "stop_name": "EDUFI",
        "stop_code": "",
        "stop_desc": "Costado este de las canchas multiuso y de la Escuela de Educación Física y Deportes (EDUFI)",
        "stop_heading": "south",
        "zone_id": "bUCR_1",
        "stop_url": "https://bus.ucr.ac.cr/paradas/bUCR_1_02",
        "location_type": "0",
        "parent_station": "",
        "wheelchair_boarding": "2",
        "shelter": "yes",
        "bench": "yes",
        "lit": "yes",
        "bay": "no",
        "device_charging_station": "yes"
      }
    },
    {
      "type": "Feature",
      "geometry": {
        "type": "Point",
        "coordinates": [
          -84.04468654565294,
          9.939134591559855
        ]
      },
      "properties": {
        "stop_id": "bUCR_1_03",
        "stop_name": "Nutrición",
        "stop_code": "",
        "stop_desc": "Esquina noreste del edificio de la Escuela de Nutrición (ENu)",
        "stop_heading": "southwest",
        "zone_id": "bUCR_1",
        "stop_url": "https://bus.ucr.ac.cr/paradas/bUCR_1_03",
        "location_type": "0",
        "parent_station": "",
        "wheelchair_boarding": "2",
        "shelter": "no",
        "bench": "no",
        "lit": "no",
        "bay": "no",
        "device_charging_station": "no"
      }
    },
    {
      "type": "Feature",
      "geometry": {
        "type": "Point",
        "coordinates": [
          -84.0436758508172,
          9.938980381389706
        ]
      },
      "properties": {
        "stop_id": "bUCR_1_04",
        "stop_name": "CIMAR / Auditorio",
        "stop_code": "",
        "stop_desc": "Entre el edificio de parqueos y el Centro de Investigación en Ciencias del Mar y Limnología (CIMAR) y el Auditorio de la Ciudad de la Investigación",
        "stop_heading": "east",
        "zone_id": "bUCR_1",
        "stop_url": "https://bus.ucr.ac.cr/paradas/bUCR_1_04",
        "location_type": "0",
        "parent_station": "",
        "wheelchair_boarding": "1",
        "shelter": "yes",
        "bench": "yes",
        "lit": "yes",
        "bay": "no",
        "device_charging_station": "no"
      }
    },
    {
      "type": "Feature",
      "geometry": {
        "type": "Point",
        "coordinates": [
          -84.042189216776,
          9.939472792042086
        ]
      },
      "properties": {
        "stop_id": "bUCR_1_05",
        "stop_name": "CIMPA",
        "stop_code": "",
        "stop_desc": "Frente al edificio del Centro de Investigación en Matemática Pura y Aplicada (CIMPA)",
        "stop_heading": "east",
        "zone_id": "bUCR_1",
        "stop_url": "https://bus.ucr.ac.cr/paradas/bUCR_1_05",
        "location_type": "0",
        "parent_station": "",
        "wheelchair_boarding": "2",
        "shelter": "no",
        "bench": "no",
        "lit": "no",
        "bay": "no",
        "device_charging_station": "no"
      }
    },
    {
      "type": "Feature",
      "geometry": {
        "type": "Point",
        "coordinates": [
          -84.04229551510366,
          9.938130529026141
        ]
      },
      "properties": {
        "stop_id": "bUCR_1_06",
        "stop_name": "Ciencias Sociales",
        "stop_code": "",
        "stop_desc": "Entre la Facultad de Ciencias Sociales (FCS) y el edificio de parqueos",
        "stop_heading": "west",
        "zone_id": "bUCR_1",
        "stop_url": "https://bus.ucr.ac.cr/paradas/bUCR_1_06",
        "location_type": "0",
        "parent_station": "bUCR_CS",
        "wheelchair_boarding": "1",
        "shelter": "yes",
        "bench": "yes",
        "lit": "yes",
        "bay": "no",
        "device_charging_station": "yes"
      }
    },
    {
      "type": "Feature",
      "geometry": {
        "type": "Point",
        "coordinates": [
          -84.04501822768842,
          9.937468669419962
        ]
      },
      "properties": {
        "stop_id": "bUCR_1_07",
        "stop_name": "Ingeniería",
        "stop_code": "B",
        "stop_desc": "Costado norte del nuevo edificio de la Facultad de Ingeniería (FI), al otro lado de la calle",
        "stop_heading": "southwest",
        "zone_id": "bUCR_1",
        "stop_url": "https://bus.ucr.ac.cr/paradas/bUCR_1_07",
        "location_type": "0",
        "parent_station": "bUCR_FI",
        "wheelchair_boarding": "1",
        "shelter": "yes",
        "bench": "yes",
        "lit": "yes",
        "bay": "no",
        "device_charging_station": "yes"
      }
    },
    {
      "type": "Feature",
      "geometry": {
        "type": "Point",
        "coordinates": [
          -84.04546950911886,
          9.93589305371453
        ]
      },
      "properties": {
        "stop_id": "bUCR_1_08",
        "stop_name": "LANAMME",
        "stop_code": "",
        "stop_desc": "Junto al parqueo del Centro de Transferencia Tecnológica (CTT), diagonal al Laboratorio Nacional de Materiales y Modelos Estructurales (LANAMME), al otro lado de la calle",
        "stop_heading": "south",
        "zone_id": "bUCR_1",
        "stop_url": "https://bus.ucr.ac.cr/paradas/bUCR_1_08",
        "location_type": "0",
        "parent_station": "bUCR_LA",
        "wheelchair_boarding": "2",
        "shelter": "no",
        "bench": "no",
        "lit": "no",
        "bay": "no",
        "device_charging_station": "no"
      }
    },
    {
      "type": "Feature",
      "geometry": {
        "type": "Point",
        "coordinates": [
          -84.04467644300775,
          9.937467311441507
        ]
      },
      "properties": {
        "stop_id": "bUCR_FI",
        "stop_name": "Facultad de Ingeniería",
        "stop_code": "",
        "stop_desc": "En las inmediaciones del edificio de la Facultad de Ingeniería",
        "stop_heading": "",
        "zone_id": "",
        "stop_url": "https://bus.ucr.ac.cr/paradas/bUCR_FI",
        "location_type": "1",
        "parent_station": "",
        "wheelchair_boarding": "1",
        "shelter": "no",
        "bench": "no",
        "lit": "no",
        "bay": "no",
        "device_charging_station": "no"
      }
    },
    {
      "type": "Feature",
      "geometry": {
        "type": "Point",
        "coordinates": [
          -84.04229551510366,
          9.938130529026141
        ]
      },
      "properties": {
        "stop_id": "bUCR_CS",
        "stop_name": "Facultad de Ciencias Sociales",
        "stop_code": "",
        "stop_desc": "En las inmediaciones del edificio de la Facultad de Ciencias Sociales",
        "stop_heading": "",
        "zone_id": "",
        "stop_url": "https://bus.ucr.ac.cr/paradas/bUCR_CS",
        "location_type": "1",
        "parent_station": "",
        "wheelchair_boarding": "1",
        "shelter": "no",
        "bench": "no",
        "lit": "no",
        "bay": "no",
        "device_charging_station": "no"
      }
    },
    {
      "type": "Feature",
      "geometry": {
        "type": "Point",
        "coordinates": [
          -84.04544067497328,
          9.935785141707278
        ]
      },
      "properties": {
        "stop_id": "bUCR_LA",
        "stop_name": "Laboratorio Nacional de Materiales y Modelos Estructurales (LANAMME)",
        "stop_code": "",
        "stop_desc": "En las inmediaciones del Laboratorio Nacional de Materiales y Modelos Estructurales (LANAMME)",
        "stop_heading": "",
        "zone_id": "",
        "stop_url": "https://bus.ucr.ac.cr/paradas/bUCR_LA",
        "location_type": "1",
        "parent_station": "",
        "wheelchair_boarding": "1",
        "shelter": "no",
        "bench": "no",
        "lit": "no",
        "bay": "no",
        "device_charging_station": "no"
      }
    }
  ]
}
